{
  "type": "FeatureCollection",
  "features": [
    {
      "type": "Feature",
      "properties": {
        "norad_id": 31307,
        "name": "GALAXY 17 (G-17)",
        "group": "intelsat",
        "lat": 2.0653864267052713,
        "lon": 136.85158879731452,
        "alt_km": 35795.2132009685,
        "timestamp": "2025-12-18T08:58:43.059479+00:00",
        "meta_object_name": "GALAXY 17 (G-17)",
        "meta_object_id": "2007-016B",
        "meta_epoch": "2025-12-17T12:55:17.368608",
        "meta_mean_motion": 1.00271938,
        "meta_eccentricity": 0.00055172,
        "meta_inclination": 2.5117,
        "meta_ra_of_asc_node": 82.2321,
        "meta_arg_of_pericenter": 168.2005,
        "meta_mean_anomaly": 304.83,
        "meta_ephemeris_type": 0,
        "meta_classification_type": "U",
        "meta_norad_cat_id": 31307,
        "meta_element_set_no": 999,
        "meta_rev_at_epoch": 6798,
        "meta_bstar": 0,
        "meta_mean_motion_dot": -1.84e-06,
        "meta_mean_motion_ddot": 0,
        "tle_line1": "1 31307U 07016B   25351.53839547 -.00000184  00000+0  00000+0 0  9990",
        "tle_line2": "2 31307   2.5117  82.2321 0005517 168.2005 304.8300  1.00271938 67989"
      },
      "geometry": {
        "type": "Point",
        "coordinates": [
          136.85158879731452,
          2.0653864267052713
        ]
      }
    },
    {
      "type": "Feature",
      "properties": {
        "norad_id": 31862,
        "name": "DIRECTV 10",
        "group": "intelsat",
        "lat": -0.0036551628540963887,
        "lon": 119.0908263721759,
        "alt_km": 35786.79480226194,
        "timestamp": "2025-12-18T08:58:43.059503+00:00",
        "meta_object_name": "DIRECTV 10",
        "meta_object_id": "2007-032A",
        "meta_epoch": "2025-12-17T21:23:49.183872",
        "meta_mean_motion": 1.00269363,
        "meta_eccentricity": 3.433e-05,
        "meta_inclination": 0.0076,
        "meta_ra_of_asc_node": 108.7537,
        "meta_arg_of_pericenter": 101.0744,
        "meta_mean_anomaly": 95.0824,
        "meta_ephemeris_type": 0,
        "meta_classification_type": "U",
        "meta_norad_cat_id": 31862,
        "meta_element_set_no": 999,
        "meta_rev_at_epoch": 4377,
        "meta_bstar": 0,
        "meta_mean_motion_dot": -7.8e-07,
        "meta_mean_motion_ddot": 0,
        "tle_line1": "1 31862U 07032A   25351.89154148 -.00000078  00000+0  00000+0 0  9992",
        "tle_line2": "2 31862   0.0076 108.7537 0000343 101.0744  95.0824  1.00269363 43772"
      },
      "geometry": {
        "type": "Point",
        "coordinates": [
          119.0908263721759,
          -0.0036551628540963887
        ]
      }
    },
    {
      "type": "Feature",
      "properties": {
        "norad_id": 32253,
        "name": "INTELSAT 11 (IS-11)",
        "group": "intelsat",
        "lat": -0.9353657061717355,
        "lon": 62.83429025703204,
        "alt_km": 36168.31735345657,
        "timestamp": "2025-12-18T08:58:43.059518+00:00",
        "meta_object_name": "INTELSAT 11 (IS-11)",
        "meta_object_id": "2007-044B",
        "meta_epoch": "2025-12-17T19:25:45.490656",
        "meta_mean_motion": 0.99051149,
        "meta_eccentricity": 0.00085893,
        "meta_inclination": 3.0928,
        "meta_ra_of_asc_node": 80.9208,
        "meta_arg_of_pericenter": 167.8717,
        "meta_mean_anomaly": 332.6994,
        "meta_ephemeris_type": 0,
        "meta_classification_type": "U",
        "meta_norad_cat_id": 32253,
        "meta_element_set_no": 999,
        "meta_rev_at_epoch": 6665,
        "meta_bstar": 0,
        "meta_mean_motion_dot": 1e-07,
        "meta_mean_motion_ddot": 0,
        "tle_line1": "1 32253U 07044B   25351.80955429  .00000010  00000+0  00000+0 0  9997",
        "tle_line2": "2 32253   3.0928  80.9208 0008589 167.8717 332.6994  0.99051149 66650"
      },
      "geometry": {
        "type": "Point",
        "coordinates": [
          62.83429025703204,
          -0.9353657061717355
        ]
      }
    },
    {
      "type": "Feature",
      "properties": {
        "norad_id": 32388,
        "name": "HORIZONS-2",
        "group": "intelsat",
        "lat": 1.9483518875339259,
        "lon": 148.0663952850103,
        "alt_km": 35797.06301598866,
        "timestamp": "2025-12-18T08:58:43.059530+00:00",
        "meta_object_name": "HORIZONS-2",
        "meta_object_id": "2007-063B",
        "meta_epoch": "2025-12-17T12:58:32.058912",
        "meta_mean_motion": 1.00272838,
        "meta_eccentricity": 0.00045713,
        "meta_inclination": 2.1335,
        "meta_ra_of_asc_node": 82.912,
        "meta_arg_of_pericenter": 191.5368,
        "meta_mean_anomaly": 292.8131,
        "meta_ephemeris_type": 0,
        "meta_classification_type": "U",
        "meta_norad_cat_id": 32388,
        "meta_element_set_no": 999,
        "meta_rev_at_epoch": 6599,
        "meta_bstar": 0,
        "meta_mean_motion_dot": -2.3e-06,
        "meta_mean_motion_ddot": 0,
        "tle_line1": "1 32388U 07063B   25351.54064883 -.00000230  00000+0  00000+0 0  9998",
        "tle_line2": "2 32388   2.1335  82.9120 0004571 191.5368 292.8131  1.00272838 65998"
      },
      "geometry": {
        "type": "Point",
        "coordinates": [
          148.0663952850103,
          1.9483518875339259
        ]
      }
    },
    {
      "type": "Feature",
      "properties": {
        "norad_id": 32729,
        "name": "DIRECTV 11",
        "group": "intelsat",
        "lat": 0.004044424890844415,
        "lon": 122.68388547029882,
        "alt_km": 35788.377913444856,
        "timestamp": "2025-12-18T08:58:43.059548+00:00",
        "meta_object_name": "DIRECTV 11",
        "meta_object_id": "2008-013A",
        "meta_epoch": "2025-12-17T21:24:49.087584",
        "meta_mean_motion": 1.00260701,
        "meta_eccentricity": 0.00010186,
        "meta_inclination": 0.0306,
        "meta_ra_of_asc_node": 208.7035,
        "meta_arg_of_pericenter": 352.6085,
        "meta_mean_anomaly": 107.4644,
        "meta_ephemeris_type": 0,
        "meta_classification_type": "U",
        "meta_norad_cat_id": 32729,
        "meta_element_set_no": 999,
        "meta_rev_at_epoch": 4377,
        "meta_bstar": 0,
        "meta_mean_motion_dot": -9.9e-07,
        "meta_mean_motion_ddot": 0,
        "tle_line1": "1 32729U 08013A   25351.89223481 -.00000099  00000+0  00000+0 0  9995",
        "tle_line2": "2 32729   0.0306 208.7035 0001018 352.6085 107.4644  1.00260701 43772"
      },
      "geometry": {
        "type": "Point",
        "coordinates": [
          122.68388547029882,
          0.004044424890844415
        ]
      }
    },
    {
      "type": "Feature",
      "properties": {
        "norad_id": 32951,
        "name": "GALAXY 18 (G-18)",
        "group": "intelsat",
        "lat": 0.04215974840348169,
        "lon": 98.90630105507528,
        "alt_km": 35797.6760516,
        "timestamp": "2025-12-18T08:58:43.059562+00:00",
        "meta_object_name": "GALAXY 18 (G-18)",
        "meta_object_id": "2008-024A",
        "meta_epoch": "2025-12-17T17:52:33.903840",
        "meta_mean_motion": 1.00272998,
        "meta_eccentricity": 0.00028423,
        "meta_inclination": 0.0183,
        "meta_ra_of_asc_node": 15.09,
        "meta_arg_of_pericenter": 257.9459,
        "meta_mean_anomaly": 318.7241,
        "meta_ephemeris_type": 0,
        "meta_classification_type": "U",
        "meta_norad_cat_id": 32951,
        "meta_element_set_no": 999,
        "meta_rev_at_epoch": 4403,
        "meta_bstar": 0,
        "meta_mean_motion_dot": 5e-07,
        "meta_mean_motion_ddot": 0,
        "tle_line1": "1 32951U 08024A   25351.74483685  .00000050  00000+0  00000+0 0  9998",
        "tle_line2": "2 32951   0.0183  15.0900 0002842 257.9459 318.7241  1.00272998 44031"
      },
      "geometry": {
        "type": "Point",
        "coordinates": [
          98.90630105507528,
          0.04215974840348169
        ]
      }
    },
    {
      "type": "Feature",
      "properties": {
        "norad_id": 33153,
        "name": "INTELSAT 25 (IS-25)",
        "group": "intelsat",
        "lat": 2.1252847304939846,
        "lon": -169.63334846452895,
        "alt_km": 35781.569352541694,
        "timestamp": "2025-12-18T08:58:43.059574+00:00",
        "meta_object_name": "INTELSAT 25 (IS-25)",
        "meta_object_id": "2008-034A",
        "meta_epoch": "2025-12-17T18:18:46.394208",
        "meta_mean_motion": 1.00270858,
        "meta_eccentricity": 0.00048121,
        "meta_inclination": 2.24,
        "meta_ra_of_asc_node": 82.5968,
        "meta_arg_of_pericenter": 184.9432,
        "meta_mean_anomaly": 62.289,
        "meta_ephemeris_type": 0,
        "meta_classification_type": "U",
        "meta_norad_cat_id": 33153,
        "meta_element_set_no": 999,
        "meta_rev_at_epoch": 6387,
        "meta_bstar": 0,
        "meta_mean_motion_dot": -2.01e-06,
        "meta_mean_motion_ddot": 0,
        "tle_line1": "1 33153U 08034A   25351.76303697 -.00000201  00000+0  00000+0 0  9999",
        "tle_line2": "2 33153   2.2400  82.5968 0004812 184.9432  62.2890  1.00270858 63871"
      },
      "geometry": {
        "type": "Point",
        "coordinates": [
          -169.63334846452895,
          2.1252847304939846
        ]
      }
    }
  ]
}